FENGYUN 1C DEB          
1 29894U 99025GQ  17345.87763824  .00000237  00000-0  25160-3 0  9991
2 29894  99.5813 321.4500 0173641 135.7872 288.0646 13.77874826548081
